{
    "links": {
        "self": "http://www.neowsapp.com/rest/v1/neo/3469638?api_key=iIulBulltgU6a56xZRHN4H3l9WmuAYTsLGpBGhQ2"
    },
    "id": "3469638",
    "neo_reference_id": "3469638",
    "name": "(2009 SQ171)",
    "designation": "2009 SQ171",
    "nasa_jpl_url": "http://ssd.jpl.nasa.gov/sbdb.cgi?sstr=3469638",
    "absolute_magnitude_h": 25.7,
    "estimated_diameter": {
        "kilometers": {
            "estimated_diameter_min": 0.0192555078,
            "estimated_diameter_max": 0.0430566244
        },
        "meters": {
            "estimated_diameter_min": 19.2555078188,
            "estimated_diameter_max": 43.0566244241
        },
        "miles": {
            "estimated_diameter_min": 0.0119648141,
            "estimated_diameter_max": 0.0267541378
        },
        "feet": {
            "estimated_diameter_min": 63.1742402722,
            "estimated_diameter_max": 141.2618956756
        }
    },
    "is_potentially_hazardous_asteroid": false,
    "close_approach_data": [
        {
            "close_approach_date": "2009-09-25",
            "close_approach_date_full": "2009-Sep-25 19:20",
            "epoch_date_close_approach": 1253906400000,
            "relative_velocity": {
                "kilometers_per_second": "5.0490417971",
                "kilometers_per_hour": "18176.5504697337",
                "miles_per_hour": "11294.2015960409"
            },
            "miss_distance": {
                "astronomical": "0.080262675",
                "lunar": "31.222180575",
                "kilometers": "12007125.22050225",
                "miles": "7460881.64634105"
            },
            "orbiting_body": "Earth"
        }
    ],
    "orbital_data": {
        "orbit_id": "6",
        "orbit_determination_date": "2017-04-06 08:59:45",
        "first_observation_date": "2009-09-28",
        "last_observation_date": "2009-09-29",
        "data_arc_in_days": 1,
        "observations_used": 17,
        "orbit_uncertainty": "9",
        "minimum_orbit_intersection": ".0799535",
        "jupiter_tisserand_invariant": "4.432",
        "epoch_osculation": "2455103.5",
        "eccentricity": ".2918165209889464",
        "semi_major_axis": "1.528247857355173",
        "inclination": "7.615270197751574",
        "ascending_node_longitude": "186.0030005659612",
        "orbital_period": "690.0636011282447",
        "perihelion_distance": "1.082279884412975",
        "perihelion_argument": "176.6100691811719",
        "aphelion_distance": "1.974215830297372",
        "perihelion_time": "2455100.547570882079",
        "mean_anomaly": "1.540255826729267",
        "mean_motion": ".5216910432768875",
        "equinox": "J2000",
        "orbit_class": {
            "orbit_class_type": "AMO",
            "orbit_class_description": "Near-Earth asteroid orbits similar to that of 1221 Amor",
            "orbit_class_range": "1.017 AU < q (perihelion) < 1.3 AU"
        }
    },
    "is_sentry_object": false
}